NORAD_CAT_ID,OBJECT_NAME,OBJECT_TYPE,EPOCH,MEAN_MOTION,ECCENTRICITY,INCLINATION,RA_OF_ASC_NODE,ARG_OF_PERICENTER,MEAN_ANOMALY,BSTAR,MEAN_MOTION_DOT,MEAN_MOTION_DDOT,TLE_LINE0,TLE_LINE1,TLE_LINE2,SEMIMAJOR_AXIS,PERIOD,APOGEE,PERIGEE,DECAYED
53033.0,STARLINK-4167,PAYLOAD,2024-02-17 14:16:52,15.08834484,0.0001545,53.218,205.9105,107.1895,252.9266,2.9924e-05,1.88e-06,0.0,0 STARLINK-4167,1 53033U 22076AZ  24048.59505753  .00000188  00000-0  29924-4 0  9995,2 53033  53.2180 205.9105 0001545 107.1895 252.9266 15.08834484 89737,6917.897,95.438,540.831,538.693,0.0
53033.0,STARLINK-4167,PAYLOAD,2024-02-17 17:27:39,15.08838413,0.0001302,53.2175,205.3185,93.7369,266.3772,5.6853e-05,6.17e-06,0.0,0 STARLINK-4167,1 53033U 22076AZ  24048.72753546  .00000617  00000-0  56853-4 0  9993,2 53033  53.2175 205.3185 0001302  93.7369 266.3772 15.08838413 90223,6917.885,95.438,540.651,538.85,0.0
53033.0,STARLINK-4167,PAYLOAD,2024-02-18 14:07:40,15.08837054,0.0001302,53.2174,201.4538,97.7037,262.4103,-3.3866e-05,-8.27e-06,0.0,0 STARLINK-4167,1 53033U 22076AZ  24049.58866137 -.00000827  00000-0 -33866-4 0  9993,2 53033  53.2174 201.4538 0001302  97.7037 262.4103 15.08837054 89882,6917.889,95.438,540.655,538.854,0.0
53033.0,STARLINK-4167,PAYLOAD,2024-02-18 20:29:12,15.08844087,0.0001277,53.217,200.2628,93.0447,267.0691,3.286e-05,2.35e-06,0.0,0 STARLINK-4167,1 53033U 22076AZ  24049.85361525  .00000235  00000-0  32860-4 0  9998,2 53033  53.2170 200.2628 0001277  93.0447 267.0691 15.08844087 89922,6917.868,95.437,540.616,538.849,0.0
53033.0,STARLINK-4167,PAYLOAD,2024-02-19 02:50:44,15.08843392,0.0001241,53.2169,199.0724,82.8603,277.253,-3.7567e-06,-3.48e-06,0.0,0 STARLINK-4167,1 53033U 22076AZ  24050.11857602 -.00000348  00000-0 -37567-5 0  9992,2 53033  53.2169 199.0724 0001241  82.8603 277.2530 15.08843392 90434,6917.87,95.437,540.594,538.877,0.0
53033.0,STARLINK-4167,PAYLOAD,2024-02-19 13:58:27,15.08832729,0.0001254,53.2173,196.9912,93.3744,266.7392,1.626e-05,-2.9e-07,0.0,0 STARLINK-4167,1 53033U 22076AZ  24050.58226570 -.00000029  00000-0  16260-4 0  9998,2 53033  53.2173 196.9912 0001254  93.3744 266.7392 15.08832729 90038,6917.903,95.438,540.635,538.9,0.0
53033.0,STARLINK-4167,PAYLOAD,2024-02-19 18:44:36,15.08840861,0.0001323,53.218,196.0999,85.504,274.6103,8.9558e-05,1.138e-05,0.0,0 STARLINK-4167,1 53033U 22076AZ  24050.78097911  .00001138  00000-0  89558-4 0  9996,2 53033  53.2180 196.0999 0001323  85.5040 274.6103 15.08840861 90068,6917.878,95.438,540.658,538.828,0.0
53033.0,STARLINK-4167,PAYLOAD,2024-02-20 02:41:32,15.08837412,0.000145,53.2181,194.6142,85.3263,274.7895,6.8171e-05,7.97e-06,0.0,0 STARLINK-4167,1 53033U 22076AZ  24051.11218235  .00000797  00000-0  68171-4 0  9996,2 53033  53.2181 194.6142 0001450  85.3263 274.7895 15.08837412 90583,6917.888,95.438,540.756,538.75,0.0
53033.0,STARLINK-4167,PAYLOAD,2024-02-20 15:24:37,15.08842759,0.0001351,53.217,192.235,89.9568,270.1579,0.00014234,1.978e-05,0.0,0 STARLINK-4167,1 53033U 22076AZ  24051.64209688  .00001978  00000-0  14234-3 0  9998,2 53033  53.2170 192.2350 0001351  89.9568 270.1579 15.08842759 90190,6917.872,95.437,540.672,538.802,0.0
53033.0,STARLINK-4167,PAYLOAD,2024-02-20 17:00:00,15.08848761,0.0001288,53.217,191.9352,78.4227,281.691,0.00011039,1.47e-05,0.0,0 STARLINK-4167,1 53033U 22076AZ  24051.70833399  .00001470  00000-0  11039-3 0  9994,2 53033  53.2170 191.9352 0001288  78.4227 281.6910 15.08848761 90670,6917.854,95.437,540.61,538.828,0.0
53033.0,STARLINK-4167,PAYLOAD,2024-02-21 15:15:24,15.08837711,0.0001425,53.2187,187.7741,86.2832,273.8324,7.003e-05,8.27e-06,0.0,0 STARLINK-4167,1 53033U 22076AZ  24052.63570237  .00000827  00000-0  70030-4 0  9998,2 53033  53.2187 187.7741 0001425  86.2832 273.8324 15.08837711 90344,6917.887,95.438,540.738,538.767,0.0
53033.0,STARLINK-4167,PAYLOAD,2024-02-22 15:06:11,15.08844985,0.0001197,53.2183,183.3139,87.7319,272.381,7.5505e-05,9.14e-06,0.0,0 STARLINK-4167,1 53033U 22076AZ  24053.62929590  .00000914  00000-0  75505-4 0  9997,2 53033  53.2183 183.3139 0001197  87.7319 272.3810 15.08844985 90496,6917.865,95.437,540.558,538.902,0.0
53033.0,STARLINK-4167,PAYLOAD,2024-02-23 11:46:12,15.0883965,0.0001617,53.2186,179.4458,101.9243,258.1931,5.0468e-05,5.15e-06,0.0,0 STARLINK-4167,1 53033U 22076AZ  24054.49041897  .00000515  00000-0  50468-4 0  9996,2 53033  53.2186 179.4458 0001617 101.9243 258.1931 15.08839650 91097,6917.881,95.438,540.865,538.628,0.0
53033.0,STARLINK-4167,PAYLOAD,2024-02-23 13:21:35,15.08840453,0.0001618,53.2185,179.1485,101.8968,258.2206,5.7304e-05,6.24e-06,0.0,0 STARLINK-4167,1 53033U 22076AZ  24054.55665866  .00000624  00000-0  57304-4 0  9998,2 53033  53.2185 179.1485 0001618 101.8968 258.2206 15.08840453 90635,6917.879,95.438,540.863,538.625,0.0
53033.0,STARLINK-4167,PAYLOAD,2024-02-23 18:07:44,15.08842499,0.0001599,53.2184,178.2555,102.7429,257.3741,6.976e-05,8.22e-06,0.0,0 STARLINK-4167,1 53033U 22076AZ  24054.75537663  .00000822  00000-0  69760-4 0  9992,2 53033  53.2184 178.2555 0001599 102.7429 257.3741 15.08842499 90661,6917.873,95.437,540.844,538.632,0.0
53033.0,STARLINK-4167,PAYLOAD,2024-02-24 11:36:59,15.08825996,0.0001561,53.2177,174.9829,107.8701,252.2461,0.00016638,2.36e-05,0.0,0 STARLINK-4167,1 53033U 22076AZ  24055.48402418  .00002360  00000-0  16638-3 0  9996,2 53033  53.2177 174.9829 0001561 107.8701 252.2461 15.08825996 91249,6917.923,95.438,540.868,538.708,0.0
53033.0,STARLINK-4167,PAYLOAD,2024-02-24 14:47:45,15.08841204,0.0001371,53.2172,174.3899,83.7449,276.37,3.085e-05,2.03e-06,0.0,0 STARLINK-4167,1 53033U 22076AZ  24055.61650093  .00000203  00000-0  30850-4 0  9992,2 53033  53.2172 174.3899 0001371  83.7449 276.3700 15.08841204 90797,6917.877,95.437,540.69,538.793,0.0
53033.0,STARLINK-4167,PAYLOAD,2024-02-25 14:38:31,15.08856695,0.0001385,53.2177,169.9286,72.6117,287.5026,0.00020928,3.046e-05,0.0,0 STARLINK-4167,1 53033U 22076AZ  24056.61008772  .00003046  00000-0  20928-3 0  9996,2 53033  53.2177 169.9286 0001385  72.6117 287.5026 15.08856695 90948,6917.829,95.436,540.652,538.736,0.0
53033.0,STARLINK-4167,PAYLOAD,2024-02-26 00:10:51,15.08847057,0.0001341,53.2179,168.1496,84.542,275.5725,8.8556e-06,-1.47e-06,0.0,0 STARLINK-4167,1 53033U 22076AZ  24057.00753644 -.00000147  00000-0  88556-5 0  9998,2 53033  53.2179 168.1496 0001341  84.5420 275.5725 15.08847057 91479,6917.859,95.437,540.652,538.796,0.0
53033.0,STARLINK-4167,PAYLOAD,2024-02-26 11:18:33,15.08837554,0.0001529,53.2192,166.0704,95.5124,264.6043,5.3434e-05,5.62e-06,0.0,0 STARLINK-4167,1 53033U 22076AZ  24057.47122389  .00000562  00000-0  53434-4 0  9991,2 53033  53.2192 166.0704 0001529  95.5124 264.6043 15.08837554 91545,6917.888,95.438,540.811,538.695,0.0
53033.0,STARLINK-4167,PAYLOAD,2024-02-26 14:29:19,15.08840766,0.0001592,53.2191,165.4745,91.5742,268.5432,8.9747e-05,1.141e-05,0.0,0 STARLINK-4167,1 53033U 22076AZ  24057.60370111  .00001141  00000-0  89747-4 0  9994,2 53033  53.2191 165.4745 0001592  91.5742 268.5432 15.08840766 91098,6917.878,95.438,540.844,538.642,0.0
53033.0,STARLINK-4167,PAYLOAD,2024-02-26 17:40:05,15.08848275,0.000129,53.2173,164.8757,91.5559,268.5581,0.00012044,1.63e-05,0.0,0 STARLINK-4167,1 53033U 22076AZ  24057.73617397  .00001630  00000-0  12044-3 0  9996,2 53033  53.2173 164.8757 0001290  91.5559 268.5581 15.08848275 91587,6917.855,95.437,540.612,538.828,0.0
53033.0,STARLINK-4167,PAYLOAD,2024-02-27 11:09:20,15.08845769,0.0001712,53.2175,161.6014,98.5581,261.5605,-0.00013539,-2.443e-05,0.0,0 STARLINK-4167,1 53033U 22076AZ  24058.46482616 -.00002443  00000-0 -13539-3 0  9996,2 53033  53.2175 161.6014 0001712  98.5581 261.5605 15.08845769 91698,6917.863,95.437,540.912,538.543,0.0
53033.0,STARLINK-4167,PAYLOAD,2024-02-27 14:20:07,15.08844803,0.0001808,53.2182,161.0076,59.6906,300.4265,-0.00012522,-2.281e-05,0.0,0 STARLINK-4167,1 53033U 22076AZ  24058.59730838 -.00002281  00000-0 -12522-3 0  9993,2 53033  53.2182 161.0076 0001808  59.6906 300.4265 15.08844803 91247,6917.866,95.437,540.981,538.48,0.0
53033.0,STARLINK-4167,PAYLOAD,2024-02-28 12:35:31,15.08835715,0.0001459,53.216,156.8502,90.835,269.2809,5.7902e-05,6.34e-06,0.0,0 STARLINK-4167,1 53033U 22076AZ  24059.52466944  .00000634  00000-0  57902-4 0  9991,2 53033  53.2160 156.8502 0001459  90.8350 269.2809 15.08835715 91856,6917.893,95.438,540.768,538.749,0.0
53033.0,STARLINK-4167,PAYLOAD,2024-02-28 14:10:54,15.08842361,0.0001427,53.2169,156.5518,94.1293,265.9862,3.5897e-05,2.83e-06,0.0,0 STARLINK-4167,1 53033U 22076AZ  24059.59090603  .00000283  00000-0  35897-4 0  9992,2 53033  53.2169 156.5518 0001427  94.1293 265.9862 15.08842361 91393,6917.873,95.437,540.725,538.751,0.0
53033.0,STARLINK-4167,PAYLOAD,2024-02-28 15:46:17,15.08845143,0.0001432,53.2169,156.2537,94.953,265.1626,5.277e-05,5.52e-06,0.0,0 STARLINK-4167,1 53033U 22076AZ  24059.65714366  .00000552  00000-0  52770-4 0  9996,2 53033  53.2169 156.2537 0001432  94.9530 265.1626 15.08845143 91873,6917.865,95.437,540.72,538.739,0.0
53033.0,STARLINK-4167,PAYLOAD,2024-02-29 12:26:18,15.08841848,0.000154,53.2169,152.389,87.3962,272.7207,8.6709e-05,1.092e-05,0.0,0 STARLINK-4167,1 53033U 22076AZ  24060.51826634  .00001092  00000-0  86709-4 0  9994,2 53033  53.2169 152.3890 0001540  87.3962 272.7207 15.08841848 91537,6917.875,95.437,540.805,538.674,0.0
53033.0,STARLINK-4167,PAYLOAD,2024-03-01 12:17:05,15.08841095,0.0001443,53.2163,147.9289,91.0314,269.0843,9.7593e-05,1.266e-05,0.0,0 STARLINK-4167,1 53033U 22076AZ  24061.51186627  .00001266  00000-0  97593-4 0  9992,2 53033  53.2163 147.9289 0001443  91.0314 269.0843 15.08841095 91683,6917.877,95.437,540.74,538.744,0.0
53033.0,STARLINK-4167,PAYLOAD,2024-03-02 10:32:29,15.08845128,0.0001389,53.2174,143.7648,95.9773,264.1378,4.0537e-06,-2.23e-06,0.0,0 STARLINK-4167,1 53033U 22076AZ  24062.43922501 -.00000223  00000-0  40537-5 0  9993,2 53033  53.2174 143.7648 0001389  95.9773 264.1378 15.08845128 92297,6917.865,95.437,540.691,538.769,0.0
